SatCatId,ObjectName,LaunchYear,OrbitalPeriod,LaunchMass,StatusCode,Inclination,Status,UcsData,OrbitClassEstimated,LaunchSiteCountry,Owner,UseType,Purpose,LaunchVehicleClass,TLE1,TLE2,MeanMotion,Eccentricity,OrbitClass
51795,STARLINK-3586,2022,95.44,260.0,+,53.21,Active,1,LEO,USA,USA,Commercial,Communications,Falcon,1 51795U 22017AD  23060.40898146  .00002335  00000+0  16482-3 0  9996,2 51795  53.2138 266.4262 0001092  87.1471 272.9646 15.08828364 57215,15.08828364,0.0001092,LEO
51796,STARLINK-3630,2022,95.44,260.0,+,53.22,Active,1,LEO,USA,USA,Commercial,Communications,Falcon,1 51796U 22017AE  23059.86433532 -.00002979  00000+0 -16928-3 0  9990,2 51796  53.2165 268.8743 0001262  69.7440 290.3687 15.08819718 57129,15.08819718,0.0001262,LEO
51797,STARLINK-3627,2022,95.04,260.0,+,53.21,Active,1,LEO,USA,USA,Commercial,Communications,Falcon,1 51797U 22017AF  23059.87823982  .00023517  00000+0  12494-2 0  9996,2 51797  53.2149 267.3404 0004679 197.6913 162.3920 15.15207568 57200,15.15207568,0.0004679,LEO
51798,STARLINK-3634,2022,95.44,260.0,+,53.22,Active,1,LEO,USA,USA,Commercial,Communications,Falcon,1 51798U 22017AG  23059.99316620 -.00015253  00000+0 -94397-3 0  9999,2 51798  53.2167 268.2970 0001173 103.7097 256.4026 15.08774862 57194,15.08774862,0.0001173,LEO
51799,STARLINK-3637,2022,95.44,260.0,+,53.21,Active,1,LEO,USA,USA,Commercial,Communications,Falcon,1 51799U 22017AH  23059.87169346 -.00001912  00000+0 -10214-3 0  9991,2 51799  53.2146 268.8439 0001205  86.1619 273.9511 15.08821149 57136,15.08821149,0.0001205,LEO
51800,STARLINK-3600,2022,95.44,260.0,+,53.21,Active,1,LEO,USA,USA,Commercial,Communications,Falcon,1 51800U 22017AJ  23059.85425291  .00006260  00000+0  41127-3 0  9992,2 51800  53.2144 268.9217 0001141  88.1498 271.9624 15.08818540 57176,15.0881854,0.0001141,LEO
51801,STARLINK-3592,2022,95.44,260.0,+,53.22,Active,1,LEO,USA,USA,Commercial,Communications,Falcon,1 51801U 22017AK  23059.86801450 -.00000968  00000+0 -42779-4 0  9995,2 51801  53.2167 268.8553 0001221  87.0043 273.1089 15.08822931 57131,15.08822931,0.0001221,LEO
51802,STARLINK-3557,2022,95.44,260.0,+,53.21,Active,1,LEO,USA,USA,Commercial,Communications,Falcon,1 51802U 22017AL  23059.88641420  .00010514  00000+0  67817-3 0  9992,2 51802  53.2148 268.7651 0001077 112.5611 247.5495 15.08814560 57138,15.0881456,0.0001077,LEO
51803,STARLINK-3544,2022,95.44,260.0,+,53.22,Active,1,LEO,USA,USA,Commercial,Communications,Falcon,1 51803U 22017AM  23059.85697582 -.00000594  00000+0 -19236-4 0  9992,2 51803  53.2156 268.9044 0001209  86.6473 273.4657 15.08820205 57120,15.08820205,0.0001209,LEO
51804,STARLINK-3601,2022,95.44,260.0,+,53.21,Active,1,LEO,USA,USA,Commercial,Communications,Falcon,1 51804U 22017AN  23059.80360501  .00026307  00000+0  16638-2 0  9995,2 51804  53.2132 249.1466 0001316  69.4140 290.6993 15.08862328 57455,15.08862328,0.0001316,LEO
51805,STARLINK-3605,2022,95.44,260.0,+,53.22,Active,1,LEO,USA,USA,Commercial,Communications,Falcon,1 51805U 22017AP  23059.86713271 -.00001561  00000+0 -80046-4 0  9991,2 51805  53.2160 248.8673 0001387  77.7722 282.3425 15.08832145 57451,15.08832145,0.0001387,LEO
51806,STARLINK-3581,2022,95.44,260.0,+,53.21,Active,1,LEO,USA,USA,Commercial,Communications,Falcon,1 51806U 22017AQ  23059.87997579  .00001649  00000+0  12174-3 0  9999,2 51806  53.2145 258.8021 0001248  83.9661 276.1473 15.08823428 57177,15.08823428,0.0001248,LEO
51807,STARLINK-3606,2022,95.44,260.0,+,53.21,Active,1,LEO,USA,USA,Commercial,Communications,Falcon,1 51807U 22017AR  23060.41726117 -.00000390  00000+0 -64493-5 0  9997,2 51807  53.2135 256.3956 0001297  78.6726 281.4412 15.08830209 57407,15.08830209,0.0001297,LEO
51808,STARLINK-3609,2022,95.44,260.0,+,53.22,Active,1,LEO,USA,USA,Commercial,Communications,Falcon,1 51808U 22017AS  23059.87261669  .00004213  00000+0  28273-3 0  9992,2 51808  53.2150 258.8325 0001230  65.9415 294.1706 15.08824333 57175,15.08824333,0.000123,LEO
51809,STARLINK-3607,2022,95.44,260.0,+,53.22,Active,1,LEO,USA,USA,Commercial,Communications,Falcon,1 51809U 22017AT  23059.81741699 -.00003010  00000+0 -17113-3 0  9990,2 51809  53.2145 259.0842 0001124  92.4157 267.6964 15.08830422 57264,15.08830422,0.0001124,LEO
51810,STARLINK-3613,2022,95.44,260.0,+,53.21,Active,1,LEO,USA,USA,Commercial,Communications,Falcon,1 51810U 22017AU  23059.89656962 -.00003382  00000+0 -19459-3 0  9995,2 51810  53.2141 248.7318 0001171  98.4908 261.6217 15.08826754 57298,15.08826754,0.0001171,LEO
51811,STARLINK-3569,2022,95.44,260.0,+,53.21,Active,1,LEO,USA,USA,Commercial,Communications,Falcon,1 51811U 22017AV  23059.87629628  .00002100  00000+0  15006-3 0  9992,2 51811  53.2140 258.8205 0001139  91.8440 268.2683 15.08823668 57175,15.08823668,0.0001139,LEO
51812,STARLINK-3610,2022,95.44,260.0,+,53.21,Active,1,LEO,USA,USA,Commercial,Communications,Falcon,1 51812U 22017AW  23059.81832911 -.00001136  00000+0 -53313-4 0  9992,2 51812  53.2133 249.0822 0000953  96.7129 263.3972 15.08836745 57285,15.08836745,9.53e-05,LEO
51813,STARLINK-3552,2022,95.44,260.0,+,53.21,Active,1,LEO,USA,USA,Commercial,Communications,Falcon,1 51813U 22017AX  23059.79993810  .00003536  00000+0  24022-3 0  9994,2 51813  53.2143 249.1889 0001377  89.7345 270.3805 15.08832694 57398,15.08832694,0.0001377,LEO
51814,STARLINK-3599,2022,95.44,260.0,+,53.21,Active,1,LEO,USA,USA,Commercial,Communications,Falcon,1 51814U 22017AY  23059.81097422 -.00002126  00000+0 -11553-3 0  9993,2 51814  53.2134 249.1155 0001121  87.3689 272.7431 15.08830754 57405,15.08830754,0.0001121,LEO
51815,STARLINK-3604,2022,95.44,260.0,+,53.21,Active,1,LEO,USA,USA,Commercial,Communications,Falcon,1 51815U 22017AZ  23059.81465624 -.00002728  00000+0 -15344-3 0  9997,2 51815  53.2142 249.0981 0001448  84.3534 275.7623 15.08820896 57401,15.08820896,0.0001448,LEO
51816,STARLINK-3603,2022,95.44,260.0,+,53.21,Active,1,LEO,USA,USA,Commercial,Communications,Falcon,1 51816U 22017BA  23059.80729425 -.00001064  00000+0 -48772-4 0  9993,2 51816  53.2145 249.1292 0001015  94.2395 265.8713 15.08826481 57457,15.08826481,0.0001015,LEO
51817,STARLINK-3596,2022,91.33,260.0,+,53.19,Active,1,LEO,USA,USA,Commercial,Communications,Falcon,1 51817U 22017BB  23060.39602000 -.00003895  00000+0 -19838-4 0  9994,2 51817  53.1886 106.2566 0001073 105.4314 254.6826 15.76701402 59448,15.76701402,0.0001073,LEO
51822,L-SAR 01B,2022,96.75,3200.0,+,97.81,Active,1,LEO,PRC,China,Government,Earth Observation,Long March,1 51822U 22018A   23060.38263548  .00003045  00000+0  33412-3 0  9998,2 51822  97.8116  69.0226 0001487 101.5131 258.6257 14.88428345 54640,14.88428345,0.0001487,LEO
51824,OBJECT A,2022,95.21,39.0,+,97.48,Active,1,LEO,PRC,China,Commercial,Technology Development,Long March,1 51824U 22019A   23060.48774277  .00016149  00000+0  92815-3 0  9999,2 51824  97.4835 134.8415 0020066  90.8028   3.5482 15.12396460 55442,15.1239646,0.0020066,LEO
51825,OBJECT B,2022,95.23,55.0,+,97.48,Active,1,LEO,PRC,China,Government,Earth Observation,Long March,1 51825U 22019B   23060.47927631  .00013464  00000+0  78150-3 0  9996,2 51825  97.4827 134.8107 0018854  87.3841  33.2624 15.12103899 55437,15.12103899,0.0018854,LEO
51826,OBJECT C,2022,95.12,65.0,+,97.48,Active,1,LEO,PRC,China,Government,Earth Observation,Long March,1 51826U 22019C   23060.44214896  .00022927  00000+0  12609-2 0  9996,2 51826  97.4817 135.1209 0017331  88.4075  40.3373 15.13945136 55455,15.13945136,0.0017331,LEO
51827,OBJECT D,2022,95.22,62.0,+,97.49,Active,1,LEO,PRC,China,Government,Earth Observation,Long March,1 51827U 22019D   23060.48442708  .00013097  00000+0  75602-3 0  9997,2 51827  97.4852 135.0283 0016878  88.3275  37.7724 15.12340895 55441,15.12340895,0.0016878,LEO
51828,OBJECT E,2022,95.14,62.0,+,97.48,Active,1,LEO,PRC,China,Government,Earth Observation,Long March,1 51828U 22019E   23060.48239764  .00019035  00000+0  10588-2 0  9993,2 51828  97.4844 135.2796 0016922  90.1147 326.3323 15.13585202 55461,15.13585202,0.0016922,LEO
51829,OBJECT F,2022,94.99,240.0,+,97.49,Active,1,LEO,PRC,China,Commercial,Earth Observation,Long March,1 51829U 22019F   23060.45365039  .00020992  00000+0  10938-2 0  9999,2 51829  97.4890 135.9579 0016447  89.3631 270.9486 15.15894318 55499,15.15894318,0.0016447,LEO
51830,OBJECT G,2022,95.0,350.0,+,97.48,Active,1,LEO,PRC,China,Commercial,Earth Observation,Long March,1 51830U 22019G   23060.45259296  .00019569  00000+0  10223-2 0  9993,2 51830  97.4816 135.6300 0016235  87.5346 272.7745 15.15821014 55497,15.15821014,0.0016235,LEO
51831,OBJECT H,2022,95.13,88.0,+,97.48,Active,1,LEO,PRC,China,Commercial,Earth Observation,Long March,1 51831U 22019H   23060.48221361  .00017756  00000+0  98384-3 0  9990,2 51831  97.4844 135.4472 0020977  87.4570 328.9086 15.13672337 55473,15.13672337,0.0020977,LEO
51832,OBJECT J,2022,95.29,32.0,+,97.48,Active,1,LEO,PRC,China,Commercial,Earth Observation,Long March,1 51832U 22019J   23060.50049863  .00013171  00000+0  78602-3 0  9997,2 51832  97.4830 134.7849 0011780  95.8135 322.6771 15.11197085 55439,15.11197085,0.001178,LEO
51833,OBJECT K,2022,95.06,43.0,+,97.48,Active,1,LEO,PRC,China,Commercial,Earth Observation,Long March,1 51833U 22019K   23060.46041667  .00021029  00000+0  11321-2 0  9992,2 51833  97.4809 135.5575 0015078  91.2397  91.5443 15.14754147 55489,15.14754147,0.0015078,LEO
51834,OBJECT L,2022,95.13,43.0,+,97.48,Active,1,LEO,PRC,China,Commercial,Earth Observation,Long March,1 51834U 22019L   23060.48348616  .00017166  00000+0  95251-3 0  9991,2 51834  97.4847 135.4826 0017479  97.9193 359.1154 15.13687442 55477,15.13687442,0.0017479,LEO
51835,OBJECT M,2022,95.13,43.0,+,97.49,Active,1,LEO,PRC,China,Commercial,Earth Observation,Long March,1 51835U 22019M   23060.48051076  .00017065  00000+0  94560-3 0  9993,2 51835  97.4853 135.4927 0018683  91.1825  29.5313 15.13719563 55478,15.13719563,0.0018683,LEO
